NORAD_CAT_ID,OBJECT_NAME,OBJECT_TYPE,EPOCH,MEAN_MOTION,ECCENTRICITY,INCLINATION,RA_OF_ASC_NODE,ARG_OF_PERICENTER,MEAN_ANOMALY,BSTAR,MEAN_MOTION_DOT,MEAN_MOTION_DDOT,TLE_LINE0,TLE_LINE1,TLE_LINE2,SEMIMAJOR_AXIS,PERIOD,APOGEE,PERIGEE,DECAYED
49734.0,STARLINK-3238,PAYLOAD,2022-08-22 08:14:08,15.08835915,0.0001943,53.2174,204.17,61.979,298.1398,2.3501e-05,8.6e-07,0.0,0 STARLINK-3238,1 49734U 21115L   22234.34315543  .00000086  00000-0  23501-4 0  9997,2 49734  53.2174 204.1700 0001943  61.9790 298.1398 15.08835915 39988,6917.893,95.438,541.102,538.414,0.0
49734.0,STARLINK-3238,PAYLOAD,2022-08-22 09:49:31,15.088362699999998,0.0001943999999999,53.2173,203.8726,61.7762,298.3426,2.4381e-05,1e-06,0.0,0 STARLINK-3238,1 49734U 21115L   22234.40939508  .00000100  00000-0  24381-4 0  9991,2 49734  53.2173 203.8726 0001944  61.7762 298.3426 15.08836270 39999,6917.892,95.438,541.102,538.4119999999998,0.0
49734.0,STARLINK-3238,PAYLOAD,2022-08-23 06:29:32,15.08842636,0.0001963,53.2174,200.0069,62.3938,297.7253,1.4208e-05,-6.2e-07,0.0,0 STARLINK-3238,1 49734U 21115L   22235.27051080 -.00000062  00000-0  14208-4 0  9992,2 49734  53.2174 200.0069 0001963  62.3938 297.7253 15.08842636 40123,6917.871999999999,95.437,541.095,538.379,0.0
49734.0,STARLINK-3238,PAYLOAD,2022-08-24 04:44:57,15.08826551,0.000192,53.2175,195.8439,63.4766,296.6422,3.2253e-06,-2.37e-06,0.0,0 STARLINK-3238,1 49734U 21115L   22236.19788380 -.00000237  00000-0  32253-5 0  9999,2 49734  53.2175 195.8439 0001920  63.4766 296.6422 15.08826551 41372,6917.920999999999,95.438,541.115,538.4580000000002,0.0
49734.0,STARLINK-3238,PAYLOAD,2022-08-24 07:55:43,15.08827337,0.0001935,53.2175,195.2493,63.1502,296.9687,-2.1043e-05,-6.23e-06,0.0,0 STARLINK-3238,1 49734U 21115L   22236.33036497 -.00000623  00000-0 -21043-4 0  9994,2 49734  53.2175 195.2493 0001935  63.1502 296.9687 15.08827337 40285,6917.919,95.438,541.123,538.445,0.0
49734.0,STARLINK-3238,PAYLOAD,2022-08-25 03:00:21,15.08834096,0.0001924,53.2175,191.6813,65.9861,294.1333,-1.3567e-05,-5.04e-06,0.0,0 STARLINK-3238,1 49734U 21115L   22237.12524478 -.00000504  00000-0 -13567-4 0  9993,2 49734  53.2175 191.6813 0001924  65.9861 294.1333 15.08834096 41512,6917.898,95.438,541.094,538.432,0.0
49734.0,STARLINK-3238,PAYLOAD,2022-08-25 06:11:07,15.08834808,0.0001932,53.2175,191.0865,65.8057,294.3136,-7.5521e-06,-4.08e-06,0.0,0 STARLINK-3238,1 49734U 21115L   22237.25772465 -.00000408  00000-0 -75521-5 0  9990,2 49734  53.2175 191.0865 0001932  65.8057 294.3136 15.08834808 40421,6917.896,95.438,541.0980000000002,538.425,0.0
49734.0,STARLINK-3238,PAYLOAD,2022-08-25 14:08:03,15.08836097,0.0001945,53.2175,189.5996,65.063,295.0564,9.0592e-06,-1.44e-06,0.0,0 STARLINK-3238,1 49734U 21115L   22237.58892437 -.00000144  00000-0  90592-5 0  9999,2 49734  53.2175 189.5996 0001945  65.0630 295.0564 15.08836097 40471,6917.892,95.438,541.1030000000002,538.4119999999998,0.0
49734.0,STARLINK-3238,PAYLOAD,2022-08-26 02:51:08,15.08832955,0.0001964,53.2176,187.2207,64.1123,296.0071,9.2488e-05,1.184e-05,0.0,0 STARLINK-3238,1 49734U 21115L   22238.11884591  .00001184  00000-0  92488-4 0  9990,2 49734  53.2176 187.2207 0001964  64.1123 296.0071 15.08832955 40552,6917.901999999999,95.438,541.126,538.408,0.0
49734.0,STARLINK-3238,PAYLOAD,2022-08-26 20:20:22,15.08840689,0.0002032,53.2177,183.9493,65.2846,294.8357,0.00010379,1.364e-05,0.0,0 STARLINK-3238,1 49734U 21115L   22238.84748239  .00001364  00000-0  10379-3 0  9996,2 49734  53.2177 183.9493 0002032  65.2846 294.8357 15.08840689 41775,6917.878000000002,95.438,541.149,538.3380000000002,0.0
49734.0,STARLINK-3238,PAYLOAD,2022-08-27 02:41:54,15.08845039,0.0002072,53.2178,182.7607,65.1724,294.9484,0.00011681,1.572e-05,0.0,0 STARLINK-3238,1 49734U 21115L   22239.11243920  .00001572  00000-0  11681-3 0  9992,2 49734  53.2178 182.7607 0002072  65.1724 294.9484 15.08845039 40706,6917.865,95.437,541.163,538.297,0.0
49734.0,STARLINK-3238,PAYLOAD,2022-08-28 02:32:41,15.08844109,0.0002029,53.2173,178.2999,63.0217,297.0982,2.654300000000001e-05,1.34e-06,0.0,0 STARLINK-3238,1 49734U 21115L   22240.10603933  .00000134  00000-0  26543-4 0  9994,2 49734  53.2173 178.2999 0002029  63.0217 297.0982 15.08844109 41964,6917.868,95.437,541.136,538.3290000000002,0.0
49734.0,STARLINK-3238,PAYLOAD,2022-08-29 03:58:51,15.08842621,0.0001927,53.2168,173.5407,63.0613,297.0576,-5.1129e-05,-1.102e-05,0.0,0 STARLINK-3238,1 49734U 21115L   22241.16587749 -.00001102  00000-0 -51129-4 0  9993,2 49734  53.2168 173.5407 0001927  63.0613 297.0576 15.08842621 42121,6917.871999999999,95.437,541.07,538.404,0.0
49734.0,STARLINK-3238,PAYLOAD,2022-08-29 05:34:15,15.08840357,0.0001947,53.2176,173.2448,63.3887,296.7304,-7.3368e-05,-1.456e-05,0.0,0 STARLINK-3238,1 49734U 21115L   22241.23211959 -.00001456  00000-0 -73368-4 0  9999,2 49734  53.2176 173.2448 0001947  63.3887 296.7304 15.08840357 41027,6917.879,95.438,541.091,538.3969999999998,0.0
49734.0,STARLINK-3238,PAYLOAD,2022-08-29 23:03:30,15.08834819,0.0001935,53.2177,169.9742,63.1151,297.0039,-3.997e-05,-9.24e-06,0.0,0 STARLINK-3238,1 49734U 21115L   22241.96076437 -.00000924  00000-0 -39970-4 0  9999,2 49734  53.2177 169.9742 0001935  63.1151 297.0039 15.08834819 42246,6917.896,95.438,541.1,538.423,0.0
49734.0,STARLINK-3238,PAYLOAD,2022-08-30 11:46:35,15.08833188,0.000194,53.2176,167.5957,62.7094,297.4095,-6.7727e-05,-1.366e-05,0.0,0 STARLINK-3238,1 49734U 21115L   22242.49068726 -.00001366  00000-0 -67727-4 0  9992,2 49734  53.2176 167.5957 0001940  62.7094 297.4095 15.08833188 41214,6917.901,95.438,541.1080000000002,538.424,0.0
49734.0,STARLINK-3238,PAYLOAD,2022-08-30 19:43:30,15.08830411,0.0001965,53.2178,166.1085,63.9266,296.1928,3.6205e-05,2.88e-06,0.0,0 STARLINK-3238,1 49734U 21115L   22242.82188622  .00000288  00000-0  36205-4 0  9994,2 49734  53.2178 166.1085 0001965  63.9266 296.1928 15.08830411 41266,6917.91,95.438,541.134,538.415,0.0
49734.0,STARLINK-3238,PAYLOAD,2022-08-31 00:29:40,15.08832821,0.0001985,53.218,165.2166,64.5871,295.5327,5.7203e-05,6.22e-06,0.0,0 STARLINK-3238,1 49734U 21115L   22243.02060530  .00000622  00000-0  57203-4 0  9997,2 49734  53.2180 165.2166 0001985  64.5871 295.5327 15.08832821 41296,6917.901999999999,95.438,541.141,538.394,0.0
49734.0,STARLINK-3238,PAYLOAD,2022-08-31 17:58:54,15.08838515,0.0001948,53.218,161.9455,64.0729,296.0464,0.0001209,1.636e-05,0.0,0 STARLINK-3238,1 49734U 21115L   22243.74924194  .00001636  00000-0  12090-3 0  9991,2 49734  53.2180 161.9455 0001948  64.0729 296.0464 15.08838515 41403,6917.885,95.438,541.0980000000002,538.4019999999998,0.0
49734.0,STARLINK-3238,PAYLOAD,2022-09-01 03:31:13,15.08830705,0.0001911,53.2181,160.1617,66.4312,293.6881,7.341e-05,8.8e-06,0.0,0 STARLINK-3238,1 49734U 21115L   22244.14668972  .00000880  00000-0  73410-4 0  9999,2 49734  53.2181 160.1617 0001911  66.4312 293.6881 15.08830705 42577,6917.909000000002,95.438,541.096,538.452,0.0
49734.0,STARLINK-3238,PAYLOAD,2022-09-01 11:28:09,15.08834064,0.0001909,53.2182,158.6753,66.86,293.2593,9.2834e-05,1.189e-05,0.0,0 STARLINK-3238,1 49734U 21115L   22244.47788969  .00001189  00000-0  92834-4 0  9998,2 49734  53.2182 158.6753 0001909  66.8600 293.2593 15.08834064 41513,6917.899,95.438,541.0840000000002,538.443,0.0
49734.0,STARLINK-3238,PAYLOAD,2022-09-01 19:25:05,15.08839193,0.0001928,53.2181,157.1884,67.4194,292.7002,5.9244e-05,6.55e-06,0.0,0 STARLINK-3238,1 49734U 21115L   22244.80908714  .00000655  00000-0  59244-4 0  9992,2 49734  53.2181 157.1884 0001928  67.4194 292.7002 15.08839193 41569,6917.8830000000025,95.438,541.082,538.414,0.0
49734.0,STARLINK-3238,PAYLOAD,2022-09-02 11:18:56,15.08841984,0.0001949,53.2178,154.2144,66.396,293.7237,1.7897e-05,-3e-08,0.0,0 STARLINK-3238,1 49734U 21115L   22245.47148687 -.00000003  00000-0  17897-4 0  9997,2 49734  53.2178 154.2144 0001949  66.3960 293.7237 15.08841984 41667,6917.874,95.437,541.0880000000002,538.391,0.0
49734.0,STARLINK-3238,PAYLOAD,2022-09-03 03:12:47,15.08852487,0.0001873,53.2178,151.2408,69.2638,290.8554,-0.0002079,-3.597e-05,0.0,0 STARLINK-3238,1 49734U 21115L   22246.13388574 -.00003597  00000-0 -20790-3 0  9999,2 49734  53.2178 151.2408 0001873  69.2638 290.8554 15.08852487 41768,6917.842,95.437,541.003,538.4119999999998,0.0
49734.0,STARLINK-3238,PAYLOAD,2022-09-04 03:03:33,15.08853271,0.0001937,53.2175,146.78,70.4048,289.7153,9.5369e-05,1.23e-05,0.0,0 STARLINK-3238,1 49734U 21115L   22247.12747448  .00001230  00000-0  95369-4 0  9993,2 49734  53.2175 146.7800 0001937  70.4048 289.7153 15.08853271 41911,6917.84,95.437,541.045,538.365,0.0
49734.0,STARLINK-3238,PAYLOAD,2022-09-05 02:54:20,15.08847238,0.0002145,53.2176,142.3199,69.3512,290.771,9.3573e-05,1.202e-05,0.0,0 STARLINK-3238,1 49734U 21115L   22248.12107515  .00001202  00000-0  93573-4 0  9993,2 49734  53.2176 142.3199 0002145  69.3512 290.7710 15.08847238 43177,6917.858,95.437,541.207,538.239,0.0
49734.0,STARLINK-3238,PAYLOAD,2022-09-05 20:23:34,15.08840124,0.0001758,53.2169,139.0473,82.4959,277.6233,0.0001386999999999,1.92e-05,0.0,0 STARLINK-3238,1 49734U 21115L   22248.84971039  .00001920  00000-0  13870-3 0  9990,2 49734  53.2169 139.0473 0001758  82.4959 277.6233 15.08840124 42177,6917.88,95.438,540.961,538.529,0.0
49734.0,STARLINK-3238,PAYLOAD,2022-09-06 02:45:08,15.088406699999998,0.0001654,53.2176,137.8603,70.5141,289.603,-0.0001075,-1.999e-05,0.0,0 STARLINK-3238,1 49734U 21115L   22249.11467787 -.00001999  00000-0 -10750-3 0  9993,2 49734  53.2176 137.8603 0001654  70.5141 289.6030 15.08840670 43324,6917.878000000002,95.438,540.888,538.599,0.0
49734.0,STARLINK-3238,PAYLOAD,2022-09-07 01:00:33,15.08825174,0.0001604,53.2179,133.6965,93.6808,266.4368,-0.00023688,-4.054e-05,0.0,0 STARLINK-3238,1 49734U 21115L   22250.04205775 -.00004054  00000-0 -23688-3 0  9993,2 49734  53.2179 133.6965 0001604  93.6808 266.4368 15.08825174 43467,6917.926,95.438,540.9,538.681,0.0
